[{"OBJECT_NAME":"ZACUBE-1 (TSHEPISOSAT)","OBJECT_ID":"2013-066B","EPOCH":"2026-03-09T22:19:27.469056","MEAN_MOTION":15.00329659,"ECCENTRICITY":0.00425262,"INCLINATION":97.8171,"RA_OF_ASC_NODE":30.7553,"ARG_OF_PERICENTER":219.1599,"MEAN_ANOMALY":140.6545,"EPHEMERIS_TYPE":0,"CLASSIFICATION_TYPE":"U","NORAD_CAT_ID":39417,"ELEMENT_SET_NO":999,"REV_AT_EPOCH":66584,"BSTAR":0.00042975473,"MEAN_MOTION_DOT":5.431e-5,"MEAN_MOTION_DDOT":0},{"OBJECT_NAME":"STARLINK-4756","OBJECT_ID":"2022-114J","EPOCH":"2026-03-09T23:08:49.621344","MEAN_MOTION":15.08837365,"ECCENTRICITY":0.00012916,"INCLINATION":53.2167,"RA_OF_ASC_NODE":302.8351,"ARG_OF_PERICENTER":87.0761,"MEAN_ANOMALY":273.0379,"EPHEMERIS_TYPE":0,"CLASSIFICATION_TYPE":"U","NORAD_CAT_ID":53826,"ELEMENT_SET_NO":999,"REV_AT_EPOCH":19287,"BSTAR":2.7698714e-5,"MEAN_MOTION_DOT":1.53e-6,"MEAN_MOTION_DDOT":0}]
